{
"type": "FeatureCollection",
"name": "TrafficLights_WP",
"crs": { "type": "name", "properties": { "name": "urn:ogc:def:crs:OGC:1.3:CRS84" } },
"features": [
{ "type": "Feature", "properties": { "osm_id": "50422994", "code": 5201, "fclass": "traffic_signals", "name": null }, "geometry": { "type": "Point", "coordinates": [ 79.8659029, 6.8513137 ] } },
{ "type": "Feature", "properties": { "osm_id": "60797056", "code": 5201, "fclass": "traffic_signals", "name": null }, "geometry": { "type": "Point", "coordinates": [ 79.863849, 6.8624205 ] } },
{ "type": "Feature", "properties": { "osm_id": "60797432", "code": 5201, "fclass": "traffic_signals", "name": null }, "geometry": { "type": "Point", "coordinates": [ 79.8660662, 6.8513212 ] } },
{ "type": "Feature", "properties": { "osm_id": "61802472", "code": 5201, "fclass": "traffic_signals", "name": null }, "geometry": { "type": "Point", "coordinates": [ 79.8781777, 6.9438059 ] } },
{ "type": "Feature", "properties": { "osm_id": "61802550", "code": 5201, "fclass": "traffic_signals", "name": null }, "geometry": { "type": "Point", "coordinates": [ 79.878467, 6.950346 ] } },
{ "type": "Feature", "properties": { "osm_id": "62783063", "code": 5201, "fclass": "traffic_signals", "name": null }, "geometry": { "type": "Point", "coordinates": [ 79.877139, 6.896967 ] } },
{ "type": "Feature", "properties": { "osm_id": "127657312", "code": 5201, "fclass": "traffic_signals", "name": null }, "geometry": { "type": "Point", "coordinates": [ 79.8613988, 6.9186486 ] } },
{ "type": "Feature", "properties": { "osm_id": "127658071", "code": 5201, "fclass": "traffic_signals", "name": null }, "geometry": { "type": "Point", "coordinates": [ 79.874386, 6.9152796 ] } },
{ "type": "Feature", "properties": { "osm_id": "127658086", "code": 5201, "fclass": "traffic_signals", "name": null }, "geometry": { "type": "Point", "coordinates": [ 79.8712568, 6.9185302 ] } },
{ "type": "Feature", "properties": { "osm_id": "127658294", "code": 5201, "fclass": "traffic_signals", "name": null }, "geometry": { "type": "Point", "coordinates": [ 79.8709444, 6.911448 ] } },
{ "type": "Feature", "properties": { "osm_id": "129615924", "code": 5201, "fclass": "traffic_signals", "name": "Delkanda Junction" }, "geometry": { "type": "Point", "coordinates": [ 79.9014385, 6.8629794 ] } },
{ "type": "Feature", "properties": { "osm_id": "129615942", "code": 5201, "fclass": "traffic_signals", "name": "Gamsabha Junction" }, "geometry": { "type": "Point", "coordinates": [ 79.8965721, 6.8651204 ] } },
{ "type": "Feature", "properties": { "osm_id": "191814043", "code": 5201, "fclass": "traffic_signals", "name": null }, "geometry": { "type": "Point", "coordinates": [ 79.8771001, 6.8942172 ] } },
{ "type": "Feature", "properties": { "osm_id": "206594633", "code": 5201, "fclass": "traffic_signals", "name": null }, "geometry": { "type": "Point", "coordinates": [ 79.8727315, 6.8785914 ] } },
{ "type": "Feature", "properties": { "osm_id": "206595627", "code": 5201, "fclass": "traffic_signals", "name": null }, "geometry": { "type": "Point", "coordinates": [ 79.8759447, 6.9113183 ] } },
{ "type": "Feature", "properties": { "osm_id": "206597400", "code": 5201, "fclass": "traffic_signals", "name": "Bellanthara Junction" }, "geometry": { "type": "Point", "coordinates": [ 79.885464, 6.8483277 ] } },
{ "type": "Feature", "properties": { "osm_id": "208541425", "code": 5201, "fclass": "traffic_signals", "name": "Kohuwala Junction" }, "geometry": { "type": "Point", "coordinates": [ 79.8846505, 6.8670384 ] } },
{ "type": "Feature", "properties": { "osm_id": "240378561", "code": 5201, "fclass": "traffic_signals", "name": null }, "geometry": { "type": "Point", "coordinates": [ 79.8758633, 6.9587631 ] } },
{ "type": "Feature", "properties": { "osm_id": "250731003", "code": 5201, "fclass": "traffic_signals", "name": null }, "geometry": { "type": "Point", "coordinates": [ 79.8968741, 6.9094649 ] } },
{ "type": "Feature", "properties": { "osm_id": "250731057", "code": 5201, "fclass": "traffic_signals", "name": "Nugegoda" }, "geometry": { "type": "Point", "coordinates": [ 79.8913865, 6.8734714 ] } },
{ "type": "Feature", "properties": { "osm_id": "250734529", "code": 5201, "fclass": "traffic_signals", "name": "Thalawathugoda Junction" }, "geometry": { "type": "Point", "coordinates": [ 79.9353716, 6.8763584 ] } },
{ "type": "Feature", "properties": { "osm_id": "253022302", "code": 5201, "fclass": "traffic_signals", "name": null }, "geometry": { "type": "Point", "coordinates": [ 79.8769776, 6.8942317 ] } },
{ "type": "Feature", "properties": { "osm_id": "253022446", "code": 5201, "fclass": "traffic_signals", "name": null }, "geometry": { "type": "Point", "coordinates": [ 79.8782945, 6.94386 ] } },
{ "type": "Feature", "properties": { "osm_id": "253022453", "code": 5201, "fclass": "traffic_signals", "name": null }, "geometry": { "type": "Point", "coordinates": [ 79.8786725, 6.9503097 ] } },
{ "type": "Feature", "properties": { "osm_id": "253022586", "code": 5201, "fclass": "traffic_signals", "name": null }, "geometry": { "type": "Point", "coordinates": [ 79.8775496, 6.9147915 ] } },
{ "type": "Feature", "properties": { "osm_id": "253026160", "code": 5201, "fclass": "traffic_signals", "name": null }, "geometry": { "type": "Point", "coordinates": [ 79.8630717, 6.8660044 ] } },
{ "type": "Feature", "properties": { "osm_id": "254029969", "code": 5201, "fclass": "traffic_signals", "name": null }, "geometry": { "type": "Point", "coordinates": [ 79.9531019, 6.8461221 ] } },
{ "type": "Feature", "properties": { "osm_id": "255040405", "code": 5201, "fclass": "traffic_signals", "name": null }, "geometry": { "type": "Point", "coordinates": [ 79.8468157, 6.9319936 ] } },
{ "type": "Feature", "properties": { "osm_id": "255361132", "code": 5201, "fclass": "traffic_signals", "name": null }, "geometry": { "type": "Point", "coordinates": [ 79.8647247, 6.9139152 ] } },
{ "type": "Feature", "properties": { "osm_id": "269202453", "code": 5201, "fclass": "traffic_signals", "name": null }, "geometry": { "type": "Point", "coordinates": [ 79.8644782, 6.9118477 ] } },
{ "type": "Feature", "properties": { "osm_id": "269202454", "code": 5201, "fclass": "traffic_signals", "name": null }, "geometry": { "type": "Point", "coordinates": [ 79.8646731, 6.9117645 ] } },
{ "type": "Feature", "properties": { "osm_id": "269202456", "code": 5201, "fclass": "traffic_signals", "name": null }, "geometry": { "type": "Point", "coordinates": [ 79.8646677, 6.9116195 ] } },
{ "type": "Feature", "properties": { "osm_id": "270333418", "code": 5201, "fclass": "traffic_signals", "name": null }, "geometry": { "type": "Point", "coordinates": [ 79.8713052, 6.9212511 ] } },
{ "type": "Feature", "properties": { "osm_id": "275517851", "code": 5201, "fclass": "traffic_signals", "name": null }, "geometry": { "type": "Point", "coordinates": [ 79.9056985, 6.9051655 ] } },
{ "type": "Feature", "properties": { "osm_id": "291488647", "code": 5201, "fclass": "traffic_signals", "name": null }, "geometry": { "type": "Point", "coordinates": [ 79.9000154, 6.7952505 ] } },
{ "type": "Feature", "properties": { "osm_id": "324988637", "code": 5201, "fclass": "traffic_signals", "name": null }, "geometry": { "type": "Point", "coordinates": [ 79.9273593, 6.9782466 ] } },
{ "type": "Feature", "properties": { "osm_id": "325008948", "code": 5201, "fclass": "traffic_signals", "name": null }, "geometry": { "type": "Point", "coordinates": [ 79.8759627, 6.9586723 ] } },
{ "type": "Feature", "properties": { "osm_id": "403875011", "code": 5201, "fclass": "traffic_signals", "name": null }, "geometry": { "type": "Point", "coordinates": [ 79.8777266, 6.9214099 ] } },
{ "type": "Feature", "properties": { "osm_id": "599347546", "code": 5201, "fclass": "traffic_signals", "name": null }, "geometry": { "type": "Point", "coordinates": [ 79.882947, 6.8098129 ] } },
{ "type": "Feature", "properties": { "osm_id": "617169300", "code": 5201, "fclass": "traffic_signals", "name": null }, "geometry": { "type": "Point", "coordinates": [ 79.8578214, 6.9204412 ] } },
{ "type": "Feature", "properties": { "osm_id": "618514969", "code": 5201, "fclass": "traffic_signals", "name": null }, "geometry": { "type": "Point", "coordinates": [ 79.8953019, 6.9085576 ] } },
{ "type": "Feature", "properties": { "osm_id": "618528183", "code": 5201, "fclass": "traffic_signals", "name": null }, "geometry": { "type": "Point", "coordinates": [ 79.8962328, 6.9091483 ] } },
{ "type": "Feature", "properties": { "osm_id": "618540121", "code": 5201, "fclass": "traffic_signals", "name": null }, "geometry": { "type": "Point", "coordinates": [ 79.877847, 6.9214058 ] } },
{ "type": "Feature", "properties": { "osm_id": "618542191", "code": 5201, "fclass": "traffic_signals", "name": null }, "geometry": { "type": "Point", "coordinates": [ 79.8756479, 6.9166737 ] } },
{ "type": "Feature", "properties": { "osm_id": "618542192", "code": 5201, "fclass": "traffic_signals", "name": null }, "geometry": { "type": "Point", "coordinates": [ 79.8757069, 6.9167269 ] } },
{ "type": "Feature", "properties": { "osm_id": "619224223", "code": 5201, "fclass": "traffic_signals", "name": null }, "geometry": { "type": "Point", "coordinates": [ 79.8783407, 6.9400534 ] } },
{ "type": "Feature", "properties": { "osm_id": "619224226", "code": 5201, "fclass": "traffic_signals", "name": null }, "geometry": { "type": "Point", "coordinates": [ 79.8782155, 6.9401678 ] } },
{ "type": "Feature", "properties": { "osm_id": "619274591", "code": 5201, "fclass": "traffic_signals", "name": null }, "geometry": { "type": "Point", "coordinates": [ 79.8679867, 6.9246829 ] } },
{ "type": "Feature", "properties": { "osm_id": "619274598", "code": 5201, "fclass": "traffic_signals", "name": null }, "geometry": { "type": "Point", "coordinates": [ 79.8679018, 6.9246135 ] } },
{ "type": "Feature", "properties": { "osm_id": "619274824", "code": 5201, "fclass": "traffic_signals", "name": null }, "geometry": { "type": "Point", "coordinates": [ 79.8647576, 6.9229861 ] } },
{ "type": "Feature", "properties": { "osm_id": "619732375", "code": 5201, "fclass": "traffic_signals", "name": null }, "geometry": { "type": "Point", "coordinates": [ 79.8639353, 6.9173705 ] } },
{ "type": "Feature", "properties": { "osm_id": "619732382", "code": 5201, "fclass": "traffic_signals", "name": null }, "geometry": { "type": "Point", "coordinates": [ 79.8639674, 6.9172161 ] } },
{ "type": "Feature", "properties": { "osm_id": "619732387", "code": 5201, "fclass": "traffic_signals", "name": null }, "geometry": { "type": "Point", "coordinates": [ 79.8639001, 6.9172025 ] } },
{ "type": "Feature", "properties": { "osm_id": "619732389", "code": 5201, "fclass": "traffic_signals", "name": null }, "geometry": { "type": "Point", "coordinates": [ 79.8638317, 6.9172791 ] } },
{ "type": "Feature", "properties": { "osm_id": "619732398", "code": 5201, "fclass": "traffic_signals", "name": null }, "geometry": { "type": "Point", "coordinates": [ 79.8645206, 6.9173498 ] } },
{ "type": "Feature", "properties": { "osm_id": "619732410", "code": 5201, "fclass": "traffic_signals", "name": null }, "geometry": { "type": "Point", "coordinates": [ 79.8649155, 6.9173707 ] } },
{ "type": "Feature", "properties": { "osm_id": "619732443", "code": 5201, "fclass": "traffic_signals", "name": null }, "geometry": { "type": "Point", "coordinates": [ 79.8646816, 6.9171815 ] } },
{ "type": "Feature", "properties": { "osm_id": "620387076", "code": 5201, "fclass": "traffic_signals", "name": null }, "geometry": { "type": "Point", "coordinates": [ 79.8497193, 6.9111149 ] } },
{ "type": "Feature", "properties": { "osm_id": "621188379", "code": 5201, "fclass": "traffic_signals", "name": null }, "geometry": { "type": "Point", "coordinates": [ 79.9303917, 6.9077409 ] } },
{ "type": "Feature", "properties": { "osm_id": "621195740", "code": 5201, "fclass": "traffic_signals", "name": null }, "geometry": { "type": "Point", "coordinates": [ 79.9170166, 6.9722115 ] } },
{ "type": "Feature", "properties": { "osm_id": "621816440", "code": 5201, "fclass": "traffic_signals", "name": null }, "geometry": { "type": "Point", "coordinates": [ 79.8770586, 6.8923613 ] } },
{ "type": "Feature", "properties": { "osm_id": "621816450", "code": 5201, "fclass": "traffic_signals", "name": null }, "geometry": { "type": "Point", "coordinates": [ 79.8769425, 6.8923654 ] } },
{ "type": "Feature", "properties": { "osm_id": "621954106", "code": 5201, "fclass": "traffic_signals", "name": null }, "geometry": { "type": "Point", "coordinates": [ 79.8627765, 6.8669095 ] } },
{ "type": "Feature", "properties": { "osm_id": "635117662", "code": 5201, "fclass": "traffic_signals", "name": null }, "geometry": { "type": "Point", "coordinates": [ 79.8774302, 6.911216 ] } },
{ "type": "Feature", "properties": { "osm_id": "635164747", "code": 5201, "fclass": "traffic_signals", "name": null }, "geometry": { "type": "Point", "coordinates": [ 79.8637742, 6.862331 ] } },
{ "type": "Feature", "properties": { "osm_id": "635855735", "code": 5201, "fclass": "traffic_signals", "name": null }, "geometry": { "type": "Point", "coordinates": [ 79.8881915, 6.8697873 ] } },
{ "type": "Feature", "properties": { "osm_id": "635855755", "code": 5201, "fclass": "traffic_signals", "name": null }, "geometry": { "type": "Point", "coordinates": [ 79.8883224, 6.8699221 ] } },
{ "type": "Feature", "properties": { "osm_id": "637539664", "code": 5201, "fclass": "traffic_signals", "name": null }, "geometry": { "type": "Point", "coordinates": [ 79.8629879, 6.8659877 ] } },
{ "type": "Feature", "properties": { "osm_id": "637603462", "code": 5201, "fclass": "traffic_signals", "name": null }, "geometry": { "type": "Point", "coordinates": [ 79.8770104, 6.8969338 ] } },
{ "type": "Feature", "properties": { "osm_id": "637624627", "code": 5201, "fclass": "traffic_signals", "name": null }, "geometry": { "type": "Point", "coordinates": [ 79.8645385, 6.911539 ] } },
{ "type": "Feature", "properties": { "osm_id": "645126091", "code": 5201, "fclass": "traffic_signals", "name": null }, "geometry": { "type": "Point", "coordinates": [ 79.9272461, 6.978256 ] } },
{ "type": "Feature", "properties": { "osm_id": "646762530", "code": 5201, "fclass": "traffic_signals", "name": null }, "geometry": { "type": "Point", "coordinates": [ 79.8646837, 6.9174028 ] } },
{ "type": "Feature", "properties": { "osm_id": "652533088", "code": 5201, "fclass": "traffic_signals", "name": null }, "geometry": { "type": "Point", "coordinates": [ 79.8816411, 6.9110408 ] } },
{ "type": "Feature", "properties": { "osm_id": "653109541", "code": 5201, "fclass": "traffic_signals", "name": null }, "geometry": { "type": "Point", "coordinates": [ 79.849336, 6.9125268 ] } },
{ "type": "Feature", "properties": { "osm_id": "662326592", "code": 5201, "fclass": "traffic_signals", "name": null }, "geometry": { "type": "Point", "coordinates": [ 79.87706, 6.9087089 ] } },
{ "type": "Feature", "properties": { "osm_id": "662848124", "code": 5201, "fclass": "traffic_signals", "name": null }, "geometry": { "type": "Point", "coordinates": [ 79.896134, 6.9093762 ] } },
{ "type": "Feature", "properties": { "osm_id": "662875960", "code": 5201, "fclass": "traffic_signals", "name": null }, "geometry": { "type": "Point", "coordinates": [ 79.8620268, 6.9228721 ] } },
{ "type": "Feature", "properties": { "osm_id": "662901136", "code": 5201, "fclass": "traffic_signals", "name": null }, "geometry": { "type": "Point", "coordinates": [ 79.8775356, 6.9147071 ] } },
{ "type": "Feature", "properties": { "osm_id": "662901137", "code": 5201, "fclass": "traffic_signals", "name": null }, "geometry": { "type": "Point", "coordinates": [ 79.8776362, 6.9146545 ] } },
{ "type": "Feature", "properties": { "osm_id": "663253013", "code": 5201, "fclass": "traffic_signals", "name": null }, "geometry": { "type": "Point", "coordinates": [ 79.8642309, 6.9283514 ] } },
{ "type": "Feature", "properties": { "osm_id": "663253092", "code": 5201, "fclass": "traffic_signals", "name": null }, "geometry": { "type": "Point", "coordinates": [ 79.863709, 6.9283237 ] } },
{ "type": "Feature", "properties": { "osm_id": "663702778", "code": 5201, "fclass": "traffic_signals", "name": null }, "geometry": { "type": "Point", "coordinates": [ 79.906832, 6.9039441 ] } },
{ "type": "Feature", "properties": { "osm_id": "664420352", "code": 5201, "fclass": "traffic_signals", "name": null }, "geometry": { "type": "Point", "coordinates": [ 79.863837, 6.9169956 ] } },
{ "type": "Feature", "properties": { "osm_id": "665241266", "code": 5201, "fclass": "traffic_signals", "name": null }, "geometry": { "type": "Point", "coordinates": [ 79.8459816, 6.9325913 ] } },
{ "type": "Feature", "properties": { "osm_id": "668963648", "code": 5201, "fclass": "traffic_signals", "name": null }, "geometry": { "type": "Point", "coordinates": [ 79.8649361, 6.9301019 ] } },
{ "type": "Feature", "properties": { "osm_id": "672817127", "code": 5201, "fclass": "traffic_signals", "name": null }, "geometry": { "type": "Point", "coordinates": [ 79.8871674, 6.8870123 ] } },
{ "type": "Feature", "properties": { "osm_id": "679746589", "code": 5201, "fclass": "traffic_signals", "name": null }, "geometry": { "type": "Point", "coordinates": [ 79.8618178, 6.9157964 ] } },
{ "type": "Feature", "properties": { "osm_id": "971827647", "code": 5201, "fclass": "traffic_signals", "name": null }, "geometry": { "type": "Point", "coordinates": [ 79.9552252, 6.9036595 ] } },
{ "type": "Feature", "properties": { "osm_id": "1121625515", "code": 5201, "fclass": "traffic_signals", "name": null }, "geometry": { "type": "Point", "coordinates": [ 79.9986599, 6.7188405 ] } },
{ "type": "Feature", "properties": { "osm_id": "1124475512", "code": 5201, "fclass": "traffic_signals", "name": null }, "geometry": { "type": "Point", "coordinates": [ 80.0030634, 6.719032 ] } },
{ "type": "Feature", "properties": { "osm_id": "1124475585", "code": 5201, "fclass": "traffic_signals", "name": null }, "geometry": { "type": "Point", "coordinates": [ 79.980825, 6.7839734 ] } },
{ "type": "Feature", "properties": { "osm_id": "1235773339", "code": 5201, "fclass": "traffic_signals", "name": null }, "geometry": { "type": "Point", "coordinates": [ 79.9742972, 6.8840445 ] } },
{ "type": "Feature", "properties": { "osm_id": "1278079600", "code": 5201, "fclass": "traffic_signals", "name": null }, "geometry": { "type": "Point", "coordinates": [ 79.8643869, 6.9116239 ] } },
{ "type": "Feature", "properties": { "osm_id": "1278079706", "code": 5201, "fclass": "traffic_signals", "name": null }, "geometry": { "type": "Point", "coordinates": [ 79.8648297, 6.9139592 ] } },
{ "type": "Feature", "properties": { "osm_id": "1278079713", "code": 5201, "fclass": "traffic_signals", "name": null }, "geometry": { "type": "Point", "coordinates": [ 79.8647256, 6.9140288 ] } },
{ "type": "Feature", "properties": { "osm_id": "1280869012", "code": 5201, "fclass": "traffic_signals", "name": null }, "geometry": { "type": "Point", "coordinates": [ 79.8457579, 6.9327602 ] } },
{ "type": "Feature", "properties": { "osm_id": "1280869013", "code": 5201, "fclass": "traffic_signals", "name": null }, "geometry": { "type": "Point", "coordinates": [ 79.8461723, 6.9329042 ] } },
{ "type": "Feature", "properties": { "osm_id": "1307347931", "code": 5201, "fclass": "traffic_signals", "name": null }, "geometry": { "type": "Point", "coordinates": [ 79.8771074, 6.90879 ] } },
{ "type": "Feature", "properties": { "osm_id": "1307347933", "code": 5201, "fclass": "traffic_signals", "name": null }, "geometry": { "type": "Point", "coordinates": [ 79.8771641, 6.9084644 ] } },
{ "type": "Feature", "properties": { "osm_id": "1346377753", "code": 5201, "fclass": "traffic_signals", "name": null }, "geometry": { "type": "Point", "coordinates": [ 79.8617634, 6.9158881 ] } },
{ "type": "Feature", "properties": { "osm_id": "1429213457", "code": 5201, "fclass": "traffic_signals", "name": null }, "geometry": { "type": "Point", "coordinates": [ 79.9056398, 6.9050819 ] } },
{ "type": "Feature", "properties": { "osm_id": "1431441533", "code": 5201, "fclass": "traffic_signals", "name": null }, "geometry": { "type": "Point", "coordinates": [ 79.8784568, 6.9495233 ] } },
{ "type": "Feature", "properties": { "osm_id": "1431441564", "code": 5201, "fclass": "traffic_signals", "name": null }, "geometry": { "type": "Point", "coordinates": [ 79.8780942, 6.9504046 ] } },
{ "type": "Feature", "properties": { "osm_id": "1475786189", "code": 5201, "fclass": "traffic_signals", "name": null }, "geometry": { "type": "Point", "coordinates": [ 79.8858573, 6.9722091 ] } },
{ "type": "Feature", "properties": { "osm_id": "1488281994", "code": 5201, "fclass": "traffic_signals", "name": null }, "geometry": { "type": "Point", "coordinates": [ 79.9808134, 6.7838903 ] } },
{ "type": "Feature", "properties": { "osm_id": "1660460613", "code": 5201, "fclass": "traffic_signals", "name": null }, "geometry": { "type": "Point", "coordinates": [ 80.0887582, 6.4525034 ] } },
{ "type": "Feature", "properties": { "osm_id": "1660460616", "code": 5201, "fclass": "traffic_signals", "name": null }, "geometry": { "type": "Point", "coordinates": [ 80.0893742, 6.4528973 ] } },
{ "type": "Feature", "properties": { "osm_id": "1661936725", "code": 5201, "fclass": "traffic_signals", "name": null }, "geometry": { "type": "Point", "coordinates": [ 79.9800346, 6.7842509 ] } },
{ "type": "Feature", "properties": { "osm_id": "1661936726", "code": 5201, "fclass": "traffic_signals", "name": null }, "geometry": { "type": "Point", "coordinates": [ 79.9800203, 6.7841661 ] } },
{ "type": "Feature", "properties": { "osm_id": "1683151514", "code": 5201, "fclass": "traffic_signals", "name": null }, "geometry": { "type": "Point", "coordinates": [ 79.8609399, 6.875491 ] } },
{ "type": "Feature", "properties": { "osm_id": "1683151516", "code": 5201, "fclass": "traffic_signals", "name": null }, "geometry": { "type": "Point", "coordinates": [ 79.8610281, 6.8755177 ] } },
{ "type": "Feature", "properties": { "osm_id": "1683151517", "code": 5201, "fclass": "traffic_signals", "name": null }, "geometry": { "type": "Point", "coordinates": [ 79.8609169, 6.8755575 ] } },
{ "type": "Feature", "properties": { "osm_id": "1832428119", "code": 5201, "fclass": "traffic_signals", "name": "Ukwatte Junction" }, "geometry": { "type": "Point", "coordinates": [ 80.2045949, 6.9543007 ] } },
{ "type": "Feature", "properties": { "osm_id": "1863416593", "code": 5201, "fclass": "traffic_signals", "name": null }, "geometry": { "type": "Point", "coordinates": [ 79.8782133, 6.9400533 ] } },
{ "type": "Feature", "properties": { "osm_id": "1863416599", "code": 5201, "fclass": "traffic_signals", "name": null }, "geometry": { "type": "Point", "coordinates": [ 79.8783383, 6.9401671 ] } },
{ "type": "Feature", "properties": { "osm_id": "2015155899", "code": 5201, "fclass": "traffic_signals", "name": null }, "geometry": { "type": "Point", "coordinates": [ 79.85682, 6.8960291 ] } },
{ "type": "Feature", "properties": { "osm_id": "2066330708", "code": 5201, "fclass": "traffic_signals", "name": null }, "geometry": { "type": "Point", "coordinates": [ 79.8774357, 6.9113314 ] } },
{ "type": "Feature", "properties": { "osm_id": "2066330716", "code": 5201, "fclass": "traffic_signals", "name": null }, "geometry": { "type": "Point", "coordinates": [ 79.8814958, 6.9111876 ] } },
{ "type": "Feature", "properties": { "osm_id": "2083191643", "code": 5201, "fclass": "traffic_signals", "name": null }, "geometry": { "type": "Point", "coordinates": [ 79.8647086, 6.9170185 ] } },
{ "type": "Feature", "properties": { "osm_id": "2122125311", "code": 5201, "fclass": "traffic_signals", "name": null }, "geometry": { "type": "Point", "coordinates": [ 79.8954098, 6.9086247 ] } },
{ "type": "Feature", "properties": { "osm_id": "2247695870", "code": 5201, "fclass": "traffic_signals", "name": null }, "geometry": { "type": "Point", "coordinates": [ 79.876477, 6.8782905 ] } },
{ "type": "Feature", "properties": { "osm_id": "2489067296", "code": 5201, "fclass": "traffic_signals", "name": null }, "geometry": { "type": "Point", "coordinates": [ 79.9549621, 6.9040412 ] } },
{ "type": "Feature", "properties": { "osm_id": "2499277699", "code": 5201, "fclass": "traffic_signals", "name": null }, "geometry": { "type": "Point", "coordinates": [ 79.8946808, 6.96851 ] } },
{ "type": "Feature", "properties": { "osm_id": "2499283524", "code": 5201, "fclass": "traffic_signals", "name": null }, "geometry": { "type": "Point", "coordinates": [ 79.8858694, 6.9720996 ] } },
{ "type": "Feature", "properties": { "osm_id": "2499283525", "code": 5201, "fclass": "traffic_signals", "name": null }, "geometry": { "type": "Point", "coordinates": [ 79.8858077, 6.9721521 ] } },
{ "type": "Feature", "properties": { "osm_id": "2499287692", "code": 5201, "fclass": "traffic_signals", "name": null }, "geometry": { "type": "Point", "coordinates": [ 79.8914606, 6.9680277 ] } },
{ "type": "Feature", "properties": { "osm_id": "2499287700", "code": 5201, "fclass": "traffic_signals", "name": null }, "geometry": { "type": "Point", "coordinates": [ 79.8946996, 6.9684208 ] } },
{ "type": "Feature", "properties": { "osm_id": "2499287720", "code": 5201, "fclass": "traffic_signals", "name": null }, "geometry": { "type": "Point", "coordinates": [ 79.9015027, 6.9678565 ] } },
{ "type": "Feature", "properties": { "osm_id": "2505999769", "code": 5201, "fclass": "traffic_signals", "name": null }, "geometry": { "type": "Point", "coordinates": [ 79.8914797, 6.9681181 ] } },
{ "type": "Feature", "properties": { "osm_id": "2508028419", "code": 5201, "fclass": "traffic_signals", "name": null }, "geometry": { "type": "Point", "coordinates": [ 79.8709496, 7.1562278 ] } },
{ "type": "Feature", "properties": { "osm_id": "2508106271", "code": 5201, "fclass": "traffic_signals", "name": null }, "geometry": { "type": "Point", "coordinates": [ 79.87068, 7.1569394 ] } },
{ "type": "Feature", "properties": { "osm_id": "2509007852", "code": 5201, "fclass": "traffic_signals", "name": null }, "geometry": { "type": "Point", "coordinates": [ 79.8712654, 7.1570982 ] } },
{ "type": "Feature", "properties": { "osm_id": "2560879663", "code": 5201, "fclass": "traffic_signals", "name": null }, "geometry": { "type": "Point", "coordinates": [ 79.8768017, 6.8855291 ] } },
{ "type": "Feature", "properties": { "osm_id": "2620521080", "code": 5201, "fclass": "traffic_signals", "name": null }, "geometry": { "type": "Point", "coordinates": [ 79.9551853, 6.9040146 ] } },
{ "type": "Feature", "properties": { "osm_id": "2925773140", "code": 5201, "fclass": "traffic_signals", "name": null }, "geometry": { "type": "Point", "coordinates": [ 79.8496678, 6.911706 ] } },
{ "type": "Feature", "properties": { "osm_id": "2925773157", "code": 5201, "fclass": "traffic_signals", "name": null }, "geometry": { "type": "Point", "coordinates": [ 79.8497492, 6.9116643 ] } },
{ "type": "Feature", "properties": { "osm_id": "2966142501", "code": 5201, "fclass": "traffic_signals", "name": null }, "geometry": { "type": "Point", "coordinates": [ 79.9564783, 7.0032816 ] } },
{ "type": "Feature", "properties": { "osm_id": "3073676023", "code": 5201, "fclass": "traffic_signals", "name": null }, "geometry": { "type": "Point", "coordinates": [ 79.8553559, 6.9342451 ] } },
{ "type": "Feature", "properties": { "osm_id": "3150402309", "code": 5201, "fclass": "traffic_signals", "name": null }, "geometry": { "type": "Point", "coordinates": [ 79.8775551, 6.9148249 ] } },
{ "type": "Feature", "properties": { "osm_id": "3150421787", "code": 5201, "fclass": "traffic_signals", "name": null }, "geometry": { "type": "Point", "coordinates": [ 79.8775324, 6.9113309 ] } },
{ "type": "Feature", "properties": { "osm_id": "3150421789", "code": 5201, "fclass": "traffic_signals", "name": null }, "geometry": { "type": "Point", "coordinates": [ 79.8774775, 6.9093333 ] } },
{ "type": "Feature", "properties": { "osm_id": "3150421800", "code": 5201, "fclass": "traffic_signals", "name": null }, "geometry": { "type": "Point", "coordinates": [ 79.8775348, 6.9112148 ] } },
{ "type": "Feature", "properties": { "osm_id": "3155589780", "code": 5201, "fclass": "traffic_signals", "name": null }, "geometry": { "type": "Point", "coordinates": [ 79.8654473, 6.9271923 ] } },
{ "type": "Feature", "properties": { "osm_id": "3155589781", "code": 5201, "fclass": "traffic_signals", "name": null }, "geometry": { "type": "Point", "coordinates": [ 79.8654966, 6.9272738 ] } },
{ "type": "Feature", "properties": { "osm_id": "3164393649", "code": 5201, "fclass": "traffic_signals", "name": null }, "geometry": { "type": "Point", "coordinates": [ 79.8557471, 6.9129312 ] } },
{ "type": "Feature", "properties": { "osm_id": "3191696090", "code": 5201, "fclass": "traffic_signals", "name": null }, "geometry": { "type": "Point", "coordinates": [ 79.8711851, 6.9213854 ] } },
{ "type": "Feature", "properties": { "osm_id": "3191696092", "code": 5201, "fclass": "traffic_signals", "name": null }, "geometry": { "type": "Point", "coordinates": [ 79.8711457, 6.9212898 ] } },
{ "type": "Feature", "properties": { "osm_id": "3206169196", "code": 5201, "fclass": "traffic_signals", "name": "Siyambalape Junction" }, "geometry": { "type": "Point", "coordinates": [ 79.9961365, 6.9615499 ] } },
{ "type": "Feature", "properties": { "osm_id": "3217294322", "code": 5201, "fclass": "traffic_signals", "name": null }, "geometry": { "type": "Point", "coordinates": [ 79.9842475, 6.9357218 ] } },
{ "type": "Feature", "properties": { "osm_id": "3268563914", "code": 5201, "fclass": "traffic_signals", "name": null }, "geometry": { "type": "Point", "coordinates": [ 79.8713659, 7.1563431 ] } },
{ "type": "Feature", "properties": { "osm_id": "3268563915", "code": 5201, "fclass": "traffic_signals", "name": null }, "geometry": { "type": "Point", "coordinates": [ 79.8714669, 7.1564162 ] } },
{ "type": "Feature", "properties": { "osm_id": "3268563916", "code": 5201, "fclass": "traffic_signals", "name": null }, "geometry": { "type": "Point", "coordinates": [ 79.8711081, 7.1570946 ] } },
{ "type": "Feature", "properties": { "osm_id": "3320941718", "code": 5201, "fclass": "traffic_signals", "name": null }, "geometry": { "type": "Point", "coordinates": [ 79.9263627, 6.8054803 ] } },
{ "type": "Feature", "properties": { "osm_id": "3345462379", "code": 5201, "fclass": "traffic_signals", "name": null }, "geometry": { "type": "Point", "coordinates": [ 79.8497817, 6.9111384 ] } },
{ "type": "Feature", "properties": { "osm_id": "3354483657", "code": 5201, "fclass": "traffic_signals", "name": null }, "geometry": { "type": "Point", "coordinates": [ 79.8968217, 6.909218 ] } },
{ "type": "Feature", "properties": { "osm_id": "3431908601", "code": 5201, "fclass": "traffic_signals", "name": null }, "geometry": { "type": "Point", "coordinates": [ 79.8859166, 6.9721466 ] } },
{ "type": "Feature", "properties": { "osm_id": "3498436508", "code": 5201, "fclass": "traffic_signals", "name": null }, "geometry": { "type": "Point", "coordinates": [ 79.9205536, 6.8092618 ] } },
{ "type": "Feature", "properties": { "osm_id": "3498455036", "code": 5201, "fclass": "traffic_signals", "name": null }, "geometry": { "type": "Point", "coordinates": [ 79.9350824, 6.8013414 ] } },
{ "type": "Feature", "properties": { "osm_id": "3498479737", "code": 5201, "fclass": "traffic_signals", "name": null }, "geometry": { "type": "Point", "coordinates": [ 79.9408736, 6.7956036 ] } },
{ "type": "Feature", "properties": { "osm_id": "3498479747", "code": 5201, "fclass": "traffic_signals", "name": null }, "geometry": { "type": "Point", "coordinates": [ 79.9407432, 6.7955643 ] } },
{ "type": "Feature", "properties": { "osm_id": "3498479748", "code": 5201, "fclass": "traffic_signals", "name": null }, "geometry": { "type": "Point", "coordinates": [ 79.940825, 6.7954851 ] } },
{ "type": "Feature", "properties": { "osm_id": "3514800953", "code": 5201, "fclass": "traffic_signals", "name": null }, "geometry": { "type": "Point", "coordinates": [ 79.9783839, 6.9245543 ] } },
{ "type": "Feature", "properties": { "osm_id": "3514800954", "code": 5201, "fclass": "traffic_signals", "name": null }, "geometry": { "type": "Point", "coordinates": [ 79.9784441, 6.9245165 ] } },
{ "type": "Feature", "properties": { "osm_id": "3521592487", "code": 5201, "fclass": "traffic_signals", "name": null }, "geometry": { "type": "Point", "coordinates": [ 79.9017308, 6.8410728 ] } },
{ "type": "Feature", "properties": { "osm_id": "3521595117", "code": 5201, "fclass": "traffic_signals", "name": null }, "geometry": { "type": "Point", "coordinates": [ 79.9017758, 6.8409881 ] } },
{ "type": "Feature", "properties": { "osm_id": "3521595128", "code": 5201, "fclass": "traffic_signals", "name": null }, "geometry": { "type": "Point", "coordinates": [ 79.9016342, 6.8410261 ] } },
{ "type": "Feature", "properties": { "osm_id": "3538180787", "code": 5201, "fclass": "traffic_signals", "name": null }, "geometry": { "type": "Point", "coordinates": [ 79.8605239, 6.9323298 ] } },
{ "type": "Feature", "properties": { "osm_id": "3549382890", "code": 5201, "fclass": "traffic_signals", "name": null }, "geometry": { "type": "Point", "coordinates": [ 80.0579832, 7.1547158 ] } },
{ "type": "Feature", "properties": { "osm_id": "3600553580", "code": 5201, "fclass": "traffic_signals", "name": null }, "geometry": { "type": "Point", "coordinates": [ 79.9601289, 7.0025288 ] } },
{ "type": "Feature", "properties": { "osm_id": "3600557544", "code": 5201, "fclass": "traffic_signals", "name": null }, "geometry": { "type": "Point", "coordinates": [ 79.9561959, 7.0029595 ] } },
{ "type": "Feature", "properties": { "osm_id": "3600567895", "code": 5201, "fclass": "traffic_signals", "name": null }, "geometry": { "type": "Point", "coordinates": [ 79.9633384, 7.0045234 ] } },
{ "type": "Feature", "properties": { "osm_id": "3600567908", "code": 5201, "fclass": "traffic_signals", "name": null }, "geometry": { "type": "Point", "coordinates": [ 79.96343, 7.0046338 ] } },
{ "type": "Feature", "properties": { "osm_id": "3600582931", "code": 5201, "fclass": "traffic_signals", "name": null }, "geometry": { "type": "Point", "coordinates": [ 79.9602376, 7.0024096 ] } },
{ "type": "Feature", "properties": { "osm_id": "3600582963", "code": 5201, "fclass": "traffic_signals", "name": null }, "geometry": { "type": "Point", "coordinates": [ 79.9601251, 7.0024135 ] } },
{ "type": "Feature", "properties": { "osm_id": "3600585998", "code": 5201, "fclass": "traffic_signals", "name": null }, "geometry": { "type": "Point", "coordinates": [ 79.9632582, 7.0045803 ] } },
{ "type": "Feature", "properties": { "osm_id": "3600606412", "code": 5201, "fclass": "traffic_signals", "name": null }, "geometry": { "type": "Point", "coordinates": [ 79.9719137, 6.9362226 ] } },
{ "type": "Feature", "properties": { "osm_id": "3600606417", "code": 5201, "fclass": "traffic_signals", "name": null }, "geometry": { "type": "Point", "coordinates": [ 79.9723292, 6.93908 ] } },
{ "type": "Feature", "properties": { "osm_id": "3600606424", "code": 5201, "fclass": "traffic_signals", "name": null }, "geometry": { "type": "Point", "coordinates": [ 79.97149, 6.9361679 ] } },
{ "type": "Feature", "properties": { "osm_id": "3600606430", "code": 5201, "fclass": "traffic_signals", "name": null }, "geometry": { "type": "Point", "coordinates": [ 79.9719065, 6.9390171 ] } },
{ "type": "Feature", "properties": { "osm_id": "3600964377", "code": 5201, "fclass": "traffic_signals", "name": null }, "geometry": { "type": "Point", "coordinates": [ 79.9791127, 6.883189 ] } },
{ "type": "Feature", "properties": { "osm_id": "3600964381", "code": 5201, "fclass": "traffic_signals", "name": null }, "geometry": { "type": "Point", "coordinates": [ 79.9790216, 6.8832529 ] } },
{ "type": "Feature", "properties": { "osm_id": "3602708277", "code": 5201, "fclass": "traffic_signals", "name": null }, "geometry": { "type": "Point", "coordinates": [ 79.9741762, 6.8840253 ] } },
{ "type": "Feature", "properties": { "osm_id": "3603432679", "code": 5201, "fclass": "traffic_signals", "name": null }, "geometry": { "type": "Point", "coordinates": [ 79.9719138, 6.9361313 ] } },
{ "type": "Feature", "properties": { "osm_id": "3603432707", "code": 5201, "fclass": "traffic_signals", "name": null }, "geometry": { "type": "Point", "coordinates": [ 79.9714775, 6.9360733 ] } },
{ "type": "Feature", "properties": { "osm_id": "3603503550", "code": 5201, "fclass": "traffic_signals", "name": null }, "geometry": { "type": "Point", "coordinates": [ 79.971893, 6.9389311 ] } },
{ "type": "Feature", "properties": { "osm_id": "3603503551", "code": 5201, "fclass": "traffic_signals", "name": null }, "geometry": { "type": "Point", "coordinates": [ 79.9722998, 6.939001 ] } },
{ "type": "Feature", "properties": { "osm_id": "3606273822", "code": 5201, "fclass": "traffic_signals", "name": null }, "geometry": { "type": "Point", "coordinates": [ 79.9987805, 6.7188603 ] } },
{ "type": "Feature", "properties": { "osm_id": "3606273823", "code": 5201, "fclass": "traffic_signals", "name": null }, "geometry": { "type": "Point", "coordinates": [ 80.0029784, 6.7190515 ] } },
{ "type": "Feature", "properties": { "osm_id": "3606358346", "code": 5201, "fclass": "traffic_signals", "name": null }, "geometry": { "type": "Point", "coordinates": [ 79.9560009, 7.0029826 ] } },
{ "type": "Feature", "properties": { "osm_id": "3608263223", "code": 5201, "fclass": "traffic_signals", "name": "Maharagama" }, "geometry": { "type": "Point", "coordinates": [ 79.9278986, 6.8468396 ] } },
{ "type": "Feature", "properties": { "osm_id": "3609620035", "code": 5201, "fclass": "traffic_signals", "name": null }, "geometry": { "type": "Point", "coordinates": [ 79.9780204, 6.9239365 ] } },
{ "type": "Feature", "properties": { "osm_id": "3609620044", "code": 5201, "fclass": "traffic_signals", "name": null }, "geometry": { "type": "Point", "coordinates": [ 79.9780805, 6.9239099 ] } },
{ "type": "Feature", "properties": { "osm_id": "3609622253", "code": 5201, "fclass": "traffic_signals", "name": null }, "geometry": { "type": "Point", "coordinates": [ 79.9587254, 7.002747 ] } },
{ "type": "Feature", "properties": { "osm_id": "3609622262", "code": 5201, "fclass": "traffic_signals", "name": null }, "geometry": { "type": "Point", "coordinates": [ 79.9587623, 7.0028463 ] } },
{ "type": "Feature", "properties": { "osm_id": "3610826710", "code": 5201, "fclass": "traffic_signals", "name": null }, "geometry": { "type": "Point", "coordinates": [ 79.8465005, 6.9324093 ] } },
{ "type": "Feature", "properties": { "osm_id": "3610826712", "code": 5201, "fclass": "traffic_signals", "name": null }, "geometry": { "type": "Point", "coordinates": [ 79.8471598, 6.93243 ] } },
{ "type": "Feature", "properties": { "osm_id": "3610863717", "code": 5201, "fclass": "traffic_signals", "name": null }, "geometry": { "type": "Point", "coordinates": [ 79.8468481, 6.9323346 ] } },
{ "type": "Feature", "properties": { "osm_id": "3645522561", "code": 5201, "fclass": "traffic_signals", "name": null }, "geometry": { "type": "Point", "coordinates": [ 79.8647223, 6.9137893 ] } },
{ "type": "Feature", "properties": { "osm_id": "3645582159", "code": 5201, "fclass": "traffic_signals", "name": null }, "geometry": { "type": "Point", "coordinates": [ 79.860047, 6.9149599 ] } },
{ "type": "Feature", "properties": { "osm_id": "3645582160", "code": 5201, "fclass": "traffic_signals", "name": null }, "geometry": { "type": "Point", "coordinates": [ 79.8602825, 6.9149636 ] } },
{ "type": "Feature", "properties": { "osm_id": "3645603979", "code": 5201, "fclass": "traffic_signals", "name": null }, "geometry": { "type": "Point", "coordinates": [ 79.8507387, 6.9080818 ] } },
{ "type": "Feature", "properties": { "osm_id": "3648987752", "code": 5201, "fclass": "traffic_signals", "name": null }, "geometry": { "type": "Point", "coordinates": [ 79.876658, 6.8855071 ] } },
{ "type": "Feature", "properties": { "osm_id": "3648987762", "code": 5201, "fclass": "traffic_signals", "name": null }, "geometry": { "type": "Point", "coordinates": [ 79.8769474, 6.8858651 ] } },
{ "type": "Feature", "properties": { "osm_id": "3648987773", "code": 5201, "fclass": "traffic_signals", "name": null }, "geometry": { "type": "Point", "coordinates": [ 79.8766028, 6.8852482 ] } },
{ "type": "Feature", "properties": { "osm_id": "3649036751", "code": 5201, "fclass": "traffic_signals", "name": null }, "geometry": { "type": "Point", "coordinates": [ 79.8767443, 6.8856484 ] } },
{ "type": "Feature", "properties": { "osm_id": "3742192428", "code": 5201, "fclass": "traffic_signals", "name": null }, "geometry": { "type": "Point", "coordinates": [ 79.8642468, 6.888089 ] } },
{ "type": "Feature", "properties": { "osm_id": "3761730806", "code": 5201, "fclass": "traffic_signals", "name": null }, "geometry": { "type": "Point", "coordinates": [ 79.9652439, 7.0068229 ] } },
{ "type": "Feature", "properties": { "osm_id": "3761730807", "code": 5201, "fclass": "traffic_signals", "name": null }, "geometry": { "type": "Point", "coordinates": [ 79.9651707, 7.0068927 ] } },
{ "type": "Feature", "properties": { "osm_id": "3780516705", "code": 5201, "fclass": "traffic_signals", "name": null }, "geometry": { "type": "Point", "coordinates": [ 79.9013195, 6.967602 ] } },
{ "type": "Feature", "properties": { "osm_id": "3780516724", "code": 5201, "fclass": "traffic_signals", "name": null }, "geometry": { "type": "Point", "coordinates": [ 79.9015551, 6.9679401 ] } },
{ "type": "Feature", "properties": { "osm_id": "3822164769", "code": 5201, "fclass": "traffic_signals", "name": null }, "geometry": { "type": "Point", "coordinates": [ 79.8610076, 6.8755804 ] } },
{ "type": "Feature", "properties": { "osm_id": "3864419806", "code": 5201, "fclass": "traffic_signals", "name": null }, "geometry": { "type": "Point", "coordinates": [ 79.9273136, 6.9782016 ] } },
{ "type": "Feature", "properties": { "osm_id": "3864419811", "code": 5201, "fclass": "traffic_signals", "name": null }, "geometry": { "type": "Point", "coordinates": [ 79.927295, 6.9783042 ] } },
{ "type": "Feature", "properties": { "osm_id": "3893909444", "code": 5201, "fclass": "traffic_signals", "name": null }, "geometry": { "type": "Point", "coordinates": [ 79.8645169, 6.9141957 ] } },
{ "type": "Feature", "properties": { "osm_id": "3902482146", "code": 5201, "fclass": "traffic_signals", "name": null }, "geometry": { "type": "Point", "coordinates": [ 79.901678, 6.8409344 ] } },
{ "type": "Feature", "properties": { "osm_id": "4047088787", "code": 5201, "fclass": "traffic_signals", "name": null }, "geometry": { "type": "Point", "coordinates": [ 79.8643698, 6.911715 ] } },
{ "type": "Feature", "properties": { "osm_id": "4324726612", "code": 5201, "fclass": "traffic_signals", "name": null }, "geometry": { "type": "Point", "coordinates": [ 79.8664396, 6.9004121 ] } },
{ "type": "Feature", "properties": { "osm_id": "4577768759", "code": 5201, "fclass": "traffic_signals", "name": null }, "geometry": { "type": "Point", "coordinates": [ 79.8555103, 6.9342014 ] } },
{ "type": "Feature", "properties": { "osm_id": "4577776877", "code": 5201, "fclass": "traffic_signals", "name": null }, "geometry": { "type": "Point", "coordinates": [ 79.8557536, 6.9341298 ] } },
{ "type": "Feature", "properties": { "osm_id": "4577776881", "code": 5201, "fclass": "traffic_signals", "name": null }, "geometry": { "type": "Point", "coordinates": [ 79.8557185, 6.9342039 ] } },
{ "type": "Feature", "properties": { "osm_id": "4577776882", "code": 5201, "fclass": "traffic_signals", "name": null }, "geometry": { "type": "Point", "coordinates": [ 79.8558251, 6.934551 ] } },
{ "type": "Feature", "properties": { "osm_id": "4577776883", "code": 5201, "fclass": "traffic_signals", "name": null }, "geometry": { "type": "Point", "coordinates": [ 79.8557993, 6.9342115 ] } },
{ "type": "Feature", "properties": { "osm_id": "4784496253", "code": 5201, "fclass": "traffic_signals", "name": null }, "geometry": { "type": "Point", "coordinates": [ 79.9563463, 7.0032685 ] } },
{ "type": "Feature", "properties": { "osm_id": "4784496254", "code": 5201, "fclass": "traffic_signals", "name": null }, "geometry": { "type": "Point", "coordinates": [ 79.9563335, 7.0030695 ] } },
{ "type": "Feature", "properties": { "osm_id": "4785723989", "code": 5201, "fclass": "traffic_signals", "name": null }, "geometry": { "type": "Point", "coordinates": [ 79.9665379, 7.0110154 ] } },
{ "type": "Feature", "properties": { "osm_id": "4785724017", "code": 5201, "fclass": "traffic_signals", "name": null }, "geometry": { "type": "Point", "coordinates": [ 79.9663717, 7.0111547 ] } },
{ "type": "Feature", "properties": { "osm_id": "4793209901", "code": 5201, "fclass": "traffic_signals", "name": null }, "geometry": { "type": "Point", "coordinates": [ 79.8776684, 6.9148343 ] } },
{ "type": "Feature", "properties": { "osm_id": "4814709482", "code": 5201, "fclass": "traffic_signals", "name": null }, "geometry": { "type": "Point", "coordinates": [ 79.8759219, 6.9589796 ] } },
{ "type": "Feature", "properties": { "osm_id": "4814710055", "code": 5201, "fclass": "traffic_signals", "name": null }, "geometry": { "type": "Point", "coordinates": [ 79.8759304, 6.9585048 ] } },
{ "type": "Feature", "properties": { "osm_id": "4817240135", "code": 5201, "fclass": "traffic_signals", "name": null }, "geometry": { "type": "Point", "coordinates": [ 79.9293338, 6.9079731 ] } },
{ "type": "Feature", "properties": { "osm_id": "5169634127", "code": 5201, "fclass": "traffic_signals", "name": null }, "geometry": { "type": "Point", "coordinates": [ 79.9440682, 6.6316977 ] } },
{ "type": "Feature", "properties": { "osm_id": "5197144866", "code": 5201, "fclass": "traffic_signals", "name": null }, "geometry": { "type": "Point", "coordinates": [ 79.9015615, 6.9678265 ] } },
{ "type": "Feature", "properties": { "osm_id": "5197144868", "code": 5201, "fclass": "traffic_signals", "name": null }, "geometry": { "type": "Point", "coordinates": [ 79.9016228, 6.9679091 ] } },
{ "type": "Feature", "properties": { "osm_id": "5216462277", "code": 5201, "fclass": "traffic_signals", "name": null }, "geometry": { "type": "Point", "coordinates": [ 79.8899459, 6.96864 ] } },
{ "type": "Feature", "properties": { "osm_id": "5216462278", "code": 5201, "fclass": "traffic_signals", "name": null }, "geometry": { "type": "Point", "coordinates": [ 79.8898432, 6.9685525 ] } },
{ "type": "Feature", "properties": { "osm_id": "5216483983", "code": 5201, "fclass": "traffic_signals", "name": null }, "geometry": { "type": "Point", "coordinates": [ 79.8857251, 6.9718711 ] } },
{ "type": "Feature", "properties": { "osm_id": "5216483999", "code": 5201, "fclass": "traffic_signals", "name": null }, "geometry": { "type": "Point", "coordinates": [ 79.8861599, 6.9719691 ] } },
{ "type": "Feature", "properties": { "osm_id": "5220461443", "code": 5201, "fclass": "traffic_signals", "name": null }, "geometry": { "type": "Point", "coordinates": [ 79.8712278, 6.9211868 ] } },
{ "type": "Feature", "properties": { "osm_id": "5237448594", "code": 5201, "fclass": "traffic_signals", "name": null }, "geometry": { "type": "Point", "coordinates": [ 79.9299131, 6.9079198 ] } },
{ "type": "Feature", "properties": { "osm_id": "5237448596", "code": 5201, "fclass": "traffic_signals", "name": null }, "geometry": { "type": "Point", "coordinates": [ 79.9300043, 6.9078839 ] } },
{ "type": "Feature", "properties": { "osm_id": "5237468021", "code": 5201, "fclass": "traffic_signals", "name": null }, "geometry": { "type": "Point", "coordinates": [ 79.9294612, 6.9081049 ] } },
{ "type": "Feature", "properties": { "osm_id": "5239209328", "code": 5201, "fclass": "traffic_signals", "name": null }, "geometry": { "type": "Point", "coordinates": [ 79.9293874, 6.9079971 ] } },
{ "type": "Feature", "properties": { "osm_id": "5246683420", "code": 5201, "fclass": "traffic_signals", "name": null }, "geometry": { "type": "Point", "coordinates": [ 79.9267469, 6.8998514 ] } },
{ "type": "Feature", "properties": { "osm_id": "5279429165", "code": 5201, "fclass": "traffic_signals", "name": null }, "geometry": { "type": "Point", "coordinates": [ 79.9302914, 6.9076569 ] } },
{ "type": "Feature", "properties": { "osm_id": "5280287630", "code": 5201, "fclass": "traffic_signals", "name": null }, "geometry": { "type": "Point", "coordinates": [ 79.9663115, 7.011188 ] } },
{ "type": "Feature", "properties": { "osm_id": "5344838927", "code": 5201, "fclass": "traffic_signals", "name": null }, "geometry": { "type": "Point", "coordinates": [ 79.9263036, 6.8055261 ] } },
{ "type": "Feature", "properties": { "osm_id": "5344838936", "code": 5201, "fclass": "traffic_signals", "name": null }, "geometry": { "type": "Point", "coordinates": [ 79.9263328, 6.8053945 ] } },
{ "type": "Feature", "properties": { "osm_id": "5601834796", "code": 5201, "fclass": "traffic_signals", "name": null }, "geometry": { "type": "Point", "coordinates": [ 79.8612399, 6.8747948 ] } },
{ "type": "Feature", "properties": { "osm_id": "5601834797", "code": 5201, "fclass": "traffic_signals", "name": null }, "geometry": { "type": "Point", "coordinates": [ 79.8611609, 6.8747656 ] } },
{ "type": "Feature", "properties": { "osm_id": "5602539618", "code": 5201, "fclass": "traffic_signals", "name": null }, "geometry": { "type": "Point", "coordinates": [ 79.8628586, 6.8669272 ] } },
{ "type": "Feature", "properties": { "osm_id": "5968326761", "code": 5201, "fclass": "traffic_signals", "name": null }, "geometry": { "type": "Point", "coordinates": [ 79.9350224, 6.8013731 ] } },
{ "type": "Feature", "properties": { "osm_id": "5968372698", "code": 5201, "fclass": "traffic_signals", "name": null }, "geometry": { "type": "Point", "coordinates": [ 79.9407828, 6.795679 ] } },
{ "type": "Feature", "properties": { "osm_id": "5968393656", "code": 5201, "fclass": "traffic_signals", "name": null }, "geometry": { "type": "Point", "coordinates": [ 79.9349596, 6.8013173 ] } },
{ "type": "Feature", "properties": { "osm_id": "5968393657", "code": 5201, "fclass": "traffic_signals", "name": null }, "geometry": { "type": "Point", "coordinates": [ 79.9350184, 6.8012845 ] } },
{ "type": "Feature", "properties": { "osm_id": "5968395016", "code": 5201, "fclass": "traffic_signals", "name": null }, "geometry": { "type": "Point", "coordinates": [ 79.9262741, 6.8054346 ] } },
{ "type": "Feature", "properties": { "osm_id": "6230792100", "code": 5201, "fclass": "traffic_signals", "name": null }, "geometry": { "type": "Point", "coordinates": [ 79.8951679, 6.9087465 ] } },
{ "type": "Feature", "properties": { "osm_id": "6230885416", "code": 5201, "fclass": "traffic_signals", "name": null }, "geometry": { "type": "Point", "coordinates": [ 79.8960491, 6.9093314 ] } },
{ "type": "Feature", "properties": { "osm_id": "6233578621", "code": 5201, "fclass": "traffic_signals", "name": null }, "geometry": { "type": "Point", "coordinates": [ 79.8653787, 6.9272687 ] } },
{ "type": "Feature", "properties": { "osm_id": "6233578631", "code": 5201, "fclass": "traffic_signals", "name": null }, "geometry": { "type": "Point", "coordinates": [ 79.8654301, 6.9273544 ] } },
{ "type": "Feature", "properties": { "osm_id": "6233616394", "code": 5201, "fclass": "traffic_signals", "name": null }, "geometry": { "type": "Point", "coordinates": [ 79.8642591, 6.9282943 ] } },
{ "type": "Feature", "properties": { "osm_id": "6234042652", "code": 5201, "fclass": "traffic_signals", "name": null }, "geometry": { "type": "Point", "coordinates": [ 79.8647597, 6.9230659 ] } },
{ "type": "Feature", "properties": { "osm_id": "6234042653", "code": 5201, "fclass": "traffic_signals", "name": null }, "geometry": { "type": "Point", "coordinates": [ 79.8646769, 6.923071 ] } },
{ "type": "Feature", "properties": { "osm_id": "6234044312", "code": 5201, "fclass": "traffic_signals", "name": null }, "geometry": { "type": "Point", "coordinates": [ 79.864672, 6.923 ] } },
{ "type": "Feature", "properties": { "osm_id": "6234164269", "code": 5201, "fclass": "traffic_signals", "name": null }, "geometry": { "type": "Point", "coordinates": [ 79.8648276, 6.9138712 ] } },
{ "type": "Feature", "properties": { "osm_id": "6234353190", "code": 5201, "fclass": "traffic_signals", "name": null }, "geometry": { "type": "Point", "coordinates": [ 79.8621002, 6.9228815 ] } },
{ "type": "Feature", "properties": { "osm_id": "6518088305", "code": 5201, "fclass": "traffic_signals", "name": "Thalawathugoda Junction" }, "geometry": { "type": "Point", "coordinates": [ 79.9353093, 6.8763205 ] } },
{ "type": "Feature", "properties": { "osm_id": "6525442932", "code": 5201, "fclass": "traffic_signals", "name": null }, "geometry": { "type": "Point", "coordinates": [ 79.9602483, 7.0025254 ] } },
{ "type": "Feature", "properties": { "osm_id": "7037743601", "code": 5201, "fclass": "traffic_signals", "name": null }, "geometry": { "type": "Point", "coordinates": [ 79.876475, 6.8782073 ] } },
{ "type": "Feature", "properties": { "osm_id": "7037743638", "code": 5201, "fclass": "traffic_signals", "name": null }, "geometry": { "type": "Point", "coordinates": [ 79.8727486, 6.8784949 ] } },
{ "type": "Feature", "properties": { "osm_id": "8502436730", "code": 5201, "fclass": "traffic_signals", "name": null }, "geometry": { "type": "Point", "coordinates": [ 79.8640122, 6.9118032 ] } },
{ "type": "Feature", "properties": { "osm_id": "8708030355", "code": 5201, "fclass": "traffic_signals", "name": null }, "geometry": { "type": "Point", "coordinates": [ 79.9493023, 6.8461689 ] } },
{ "type": "Feature", "properties": { "osm_id": "8708030356", "code": 5201, "fclass": "traffic_signals", "name": null }, "geometry": { "type": "Point", "coordinates": [ 79.9493104, 6.8462308 ] } },
{ "type": "Feature", "properties": { "osm_id": "9447923538", "code": 5201, "fclass": "traffic_signals", "name": null }, "geometry": { "type": "Point", "coordinates": [ 80.1365201, 7.2596197 ] } },
{ "type": "Feature", "properties": { "osm_id": "9447923539", "code": 5201, "fclass": "traffic_signals", "name": null }, "geometry": { "type": "Point", "coordinates": [ 80.1364249, 7.2597068 ] } },
{ "type": "Feature", "properties": { "osm_id": "9447923540", "code": 5201, "fclass": "traffic_signals", "name": null }, "geometry": { "type": "Point", "coordinates": [ 80.1365303, 7.2596894 ] } },
{ "type": "Feature", "properties": { "osm_id": "9447923541", "code": 5201, "fclass": "traffic_signals", "name": null }, "geometry": { "type": "Point", "coordinates": [ 80.1363457, 7.2598218 ] } },
{ "type": "Feature", "properties": { "osm_id": "9496753349", "code": 5201, "fclass": "traffic_signals", "name": null }, "geometry": { "type": "Point", "coordinates": [ 79.8605098, 6.8772564 ] } },
{ "type": "Feature", "properties": { "osm_id": "9496753350", "code": 5201, "fclass": "traffic_signals", "name": null }, "geometry": { "type": "Point", "coordinates": [ 79.8604216, 6.8772307 ] } },
{ "type": "Feature", "properties": { "osm_id": "9577090224", "code": 5201, "fclass": "traffic_signals", "name": null }, "geometry": { "type": "Point", "coordinates": [ 79.919621, 6.9022397 ] } },
{ "type": "Feature", "properties": { "osm_id": "9577090225", "code": 5201, "fclass": "traffic_signals", "name": null }, "geometry": { "type": "Point", "coordinates": [ 79.9194442, 6.9021742 ] } },
{ "type": "Feature", "properties": { "osm_id": "9577090226", "code": 5201, "fclass": "traffic_signals", "name": null }, "geometry": { "type": "Point", "coordinates": [ 79.9195102, 6.9021254 ] } },
{ "type": "Feature", "properties": { "osm_id": "9577090227", "code": 5201, "fclass": "traffic_signals", "name": null }, "geometry": { "type": "Point", "coordinates": [ 79.9242708, 6.894918 ] } },
{ "type": "Feature", "properties": { "osm_id": "9577090228", "code": 5201, "fclass": "traffic_signals", "name": null }, "geometry": { "type": "Point", "coordinates": [ 79.9243564, 6.8950698 ] } },
{ "type": "Feature", "properties": { "osm_id": "9577090229", "code": 5201, "fclass": "traffic_signals", "name": null }, "geometry": { "type": "Point", "coordinates": [ 79.9243439, 6.8949337 ] } },
{ "type": "Feature", "properties": { "osm_id": "9577090230", "code": 5201, "fclass": "traffic_signals", "name": null }, "geometry": { "type": "Point", "coordinates": [ 79.9243329, 6.8951926 ] } },
{ "type": "Feature", "properties": { "osm_id": "9577090231", "code": 5201, "fclass": "traffic_signals", "name": null }, "geometry": { "type": "Point", "coordinates": [ 79.9289196, 6.8914508 ] } },
{ "type": "Feature", "properties": { "osm_id": "9577090232", "code": 5201, "fclass": "traffic_signals", "name": null }, "geometry": { "type": "Point", "coordinates": [ 79.9288612, 6.8912874 ] } },
{ "type": "Feature", "properties": { "osm_id": "9577090233", "code": 5201, "fclass": "traffic_signals", "name": null }, "geometry": { "type": "Point", "coordinates": [ 79.9289386, 6.8913642 ] } },
{ "type": "Feature", "properties": { "osm_id": "9577090234", "code": 5201, "fclass": "traffic_signals", "name": null }, "geometry": { "type": "Point", "coordinates": [ 79.9288398, 6.8913888 ] } },
{ "type": "Feature", "properties": { "osm_id": "10603977996", "code": 5201, "fclass": "traffic_signals", "name": null }, "geometry": { "type": "Point", "coordinates": [ 79.8677658, 6.8304817 ] } },
{ "type": "Feature", "properties": { "osm_id": "10603977997", "code": 5201, "fclass": "traffic_signals", "name": null }, "geometry": { "type": "Point", "coordinates": [ 79.8678375, 6.8305117 ] } },
{ "type": "Feature", "properties": { "osm_id": "10660932949", "code": 5201, "fclass": "traffic_signals", "name": null }, "geometry": { "type": "Point", "coordinates": [ 79.8703347, 6.9027441 ] } },
{ "type": "Feature", "properties": { "osm_id": "10660932971", "code": 5201, "fclass": "traffic_signals", "name": null }, "geometry": { "type": "Point", "coordinates": [ 79.8664115, 6.9004886 ] } },
{ "type": "Feature", "properties": { "osm_id": "10660932981", "code": 5201, "fclass": "traffic_signals", "name": null }, "geometry": { "type": "Point", "coordinates": [ 79.8679525, 6.9012139 ] } },
{ "type": "Feature", "properties": { "osm_id": "10660932982", "code": 5201, "fclass": "traffic_signals", "name": null }, "geometry": { "type": "Point", "coordinates": [ 79.8679936, 6.9011526 ] } },
{ "type": "Feature", "properties": { "osm_id": "10660932992", "code": 5201, "fclass": "traffic_signals", "name": null }, "geometry": { "type": "Point", "coordinates": [ 79.8703724, 6.9026835 ] } },
{ "type": "Feature", "properties": { "osm_id": "10682149765", "code": 5201, "fclass": "traffic_signals", "name": null }, "geometry": { "type": "Point", "coordinates": [ 79.8669109, 6.9116398 ] } },
{ "type": "Feature", "properties": { "osm_id": "10682149766", "code": 5201, "fclass": "traffic_signals", "name": null }, "geometry": { "type": "Point", "coordinates": [ 79.8669725, 6.9116376 ] } },
{ "type": "Feature", "properties": { "osm_id": "10682149772", "code": 5201, "fclass": "traffic_signals", "name": null }, "geometry": { "type": "Point", "coordinates": [ 79.8669048, 6.9115577 ] } },
{ "type": "Feature", "properties": { "osm_id": "10682149773", "code": 5201, "fclass": "traffic_signals", "name": null }, "geometry": { "type": "Point", "coordinates": [ 79.8669677, 6.9115582 ] } },
{ "type": "Feature", "properties": { "osm_id": "10882845399", "code": 5201, "fclass": "traffic_signals", "name": null }, "geometry": { "type": "Point", "coordinates": [ 80.1364102, 7.2596296 ] } },
{ "type": "Feature", "properties": { "osm_id": "11939729500", "code": 5201, "fclass": "traffic_signals", "name": null }, "geometry": { "type": "Point", "coordinates": [ 79.9077125, 6.7124481 ] } }
]
}
